RESURS-DK 1             
1 29228U 06021A   26204.32442911  .00001589  00000+0  95009-4 0  9991
2 29228  69.9299 245.9974 0007572 262.5212  97.5094 15.13340824108048
RADARSAT-2              
1 32382U 07061A   26204.84248572  .00000046  00000+0  34921-4 0  9998
2 32382  98.5795 211.2521 0001322  87.2851 272.8483 14.29980909971198
RESOURCESAT-2           
1 37387U 11015A   26204.82887307  .00000051  00000+0  43555-4 0  9994
2 37387  98.7625 272.0137 0012021 147.3783 212.8139 14.21601014791382
RASAT                   
1 37791U 11044D   26204.85243838  .00000741  00000+0  13673-3 0  9996
2 37791  98.0574 295.6903 0021970  77.1867  32.2166 14.68199978798568
RESOURCESAT-2A          
1 41877U 16074A   26204.81042074  .00000095  00000+0  63346-4 0  9994
2 41877  98.7512 278.0125 0001870   7.5055 352.6150 14.21610569499508
RCM-1                   
1 44322U 19033A   26204.89398476  .00000571  00000+0  60960-4 0  9996
2 44322  97.7606 211.8228 0001521  91.4226  26.4968 14.92586448387553
RCM-3                   
1 44323U 19033B   26204.82762522  .00000144  00000+0  19395-4 0  9999
2 44323  97.7605 211.8518 0001547  89.8537 270.2860 14.92586209387565
RCM-2                   
1 44324U 19033C   26204.84983128  .00000702  00000+0  73708-4 0  9997
2 44324  97.7604 211.8241 0001498  89.4960 270.6431 14.92587707387550
QPS-SAR-8 (AMATERU-IV)  
1 60542U 24149CC  26204.64525980  .00005666  00000+0  40949-3 0  9991
2 60542  97.6640 283.4931 0002674   9.8331 350.2947 15.04449652105752
QPS-SAR-9 (SUSANOO-I)   
1 63205U 25050A   26204.79322961  .00004718  00000+0  35412-3 0  9998
2 63205  42.0190 259.9087 0004074  16.0786 344.0170 15.03450355 74479
